{
  "type": "FeatureCollection",
  "features": [
    {
      "type": "Feature",
      "properties": {
        "norad_id": 36036,
        "name": "SMOS",
        "group": "resource",
        "lat": -3.298723248107853,
        "lon": -2.787774885207069,
        "alt_km": 762.8775488074198,
        "timestamp": "2025-12-18T17:50:14.613136+00:00",
        "meta_object_name": "SMOS",
        "meta_object_id": "2009-059A",
        "meta_epoch": "2025-12-18T01:58:40.326816",
        "meta_mean_motion": 14.3974595,
        "meta_eccentricity": 0.00010947,
        "meta_inclination": 98.438,
        "meta_ra_of_asc_node": 177.0517,
        "meta_arg_of_pericenter": 82.5578,
        "meta_mean_anomaly": 277.5734,
        "meta_ephemeris_type": 0,
        "meta_classification_type": "U",
        "meta_norad_cat_id": 36036,
        "meta_element_set_no": 999,
        "meta_rev_at_epoch": 84739,
        "meta_bstar": 0.00011713656,
        "meta_mean_motion_dot": 3.24e-06,
        "meta_mean_motion_ddot": 0,
        "tle_line1": "1 36036U 09059A   25352.08241119  .00000324  00000+0  11714-3 0  9999",
        "tle_line2": "2 36036  98.4380 177.0517 0001094  82.5578 277.5734 14.39745950847392"
      },
      "geometry": {
        "type": "Point",
        "coordinates": [
          -2.787774885207069,
          -3.298723248107853
        ]
      }
    },
    {
      "type": "Feature",
      "properties": {
        "norad_id": 36110,
        "name": "YAOGAN-7",
        "group": "resource",
        "lat": 70.47272766415712,
        "lon": 77.93346190550763,
        "alt_km": 644.2311154560657,
        "timestamp": "2025-12-18T17:50:14.613147+00:00",
        "meta_object_name": "YAOGAN-7",
        "meta_object_id": "2009-069A",
        "meta_epoch": "2025-12-18T05:58:25.938912",
        "meta_mean_motion": 14.77740552,
        "meta_eccentricity": 0.00233338,
        "meta_inclination": 98.0296,
        "meta_ra_of_asc_node": 233.9861,
        "meta_arg_of_pericenter": 262.4937,
        "meta_mean_anomaly": 97.3622,
        "meta_ephemeris_type": 0,
        "meta_classification_type": "U",
        "meta_norad_cat_id": 36110,
        "meta_element_set_no": 999,
        "meta_rev_at_epoch": 86290,
        "meta_bstar": 7.9361225e-05,
        "meta_mean_motion_dot": 5.18e-06,
        "meta_mean_motion_ddot": 0,
        "tle_line1": "1 36110U 09069A   25352.24891133  .00000518  00000+0  79361-4 0  9996",
        "tle_line2": "2 36110  98.0296 233.9861 0023333 262.4937  97.3622 14.77740552862902"
      },
      "geometry": {
        "type": "Point",
        "coordinates": [
          77.93346190550763,
          70.47272766415712
        ]
      }
    },
    {
      "type": "Feature",
      "properties": {
        "norad_id": 36605,
        "name": "TANDEM-X",
        "group": "resource",
        "lat": 12.676482937553756,
        "lon": 179.72111755759624,
        "alt_km": 509.7233181192805,
        "timestamp": "2025-12-18T17:50:14.613157+00:00",
        "meta_object_name": "TANDEM-X",
        "meta_object_id": "2010-030A",
        "meta_epoch": "2025-12-17T14:13:48.411552",
        "meta_mean_motion": 15.19149806,
        "meta_eccentricity": 0.00018481,
        "meta_inclination": 97.4443,
        "meta_ra_of_asc_node": 356.9023,
        "meta_arg_of_pericenter": 79.8054,
        "meta_mean_anomaly": 280.3389,
        "meta_ephemeris_type": 0,
        "meta_classification_type": "U",
        "meta_norad_cat_id": 36605,
        "meta_element_set_no": 999,
        "meta_rev_at_epoch": 85907,
        "meta_bstar": 4.6537622e-05,
        "meta_mean_motion_dot": 9.1e-06,
        "meta_mean_motion_ddot": 0,
        "tle_line1": "1 36605U 10030A   25351.59292143  .00000910  00000+0  46538-4 0  9994",
        "tle_line2": "2 36605  97.4443 356.9023 0001848  79.8054 280.3389 15.19149806859071"
      },
      "geometry": {
        "type": "Point",
        "coordinates": [
          179.72111755759624,
          12.676482937553756
        ]
      }
    },
    {
      "type": "Feature",
      "properties": {
        "norad_id": 36795,
        "name": "CARTOSAT-2B",
        "group": "resource",
        "lat": 55.78956752234808,
        "lon": 29.96984739875862,
        "alt_km": 618.9733892418717,
        "timestamp": "2025-12-18T17:50:14.613167+00:00",
        "meta_object_name": "CARTOSAT-2B",
        "meta_object_id": "2010-035A",
        "meta_epoch": "2025-12-18T07:50:20.262624",
        "meta_mean_motion": 14.78733618,
        "meta_eccentricity": 0.00128996,
        "meta_inclination": 97.7852,
        "meta_ra_of_asc_node": 41.1759,
        "meta_arg_of_pericenter": 59.9672,
        "meta_mean_anomaly": 300.2817,
        "meta_ephemeris_type": 0,
        "meta_classification_type": "U",
        "meta_norad_cat_id": 36795,
        "meta_element_set_no": 999,
        "meta_rev_at_epoch": 83312,
        "meta_bstar": 0.00011317003,
        "meta_mean_motion_dot": 7.82e-06,
        "meta_mean_motion_ddot": 0,
        "tle_line1": "1 36795U 10035A   25352.32662341  .00000782  00000+0  11317-3 0  9995",
        "tle_line2": "2 36795  97.7852  41.1759 0012899  59.9672 300.2817 14.78733618833120"
      },
      "geometry": {
        "type": "Point",
        "coordinates": [
          29.96984739875862,
          55.78956752234808
        ]
      }
    },
    {
      "type": "Feature",
      "properties": {
        "norad_id": 36834,
        "name": "YAOGAN-10",
        "group": "resource",
        "lat": -80.09084307694107,
        "lon": 139.74497388547056,
        "alt_km": 623.0830192928224,
        "timestamp": "2025-12-18T17:50:14.613177+00:00",
        "meta_object_name": "YAOGAN-10",
        "meta_object_id": "2010-038A",
        "meta_epoch": "2025-12-18T07:31:44.092128",
        "meta_mean_motion": 14.84629859,
        "meta_eccentricity": 0.00014207,
        "meta_inclination": 97.9138,
        "meta_ra_of_asc_node": 12.0932,
        "meta_arg_of_pericenter": 81.4672,
        "meta_mean_anomaly": 48.3051,
        "meta_ephemeris_type": 0,
        "meta_classification_type": "U",
        "meta_norad_cat_id": 36834,
        "meta_element_set_no": 999,
        "meta_rev_at_epoch": 83036,
        "meta_bstar": 0.00025612261,
        "meta_mean_motion_dot": 2.111e-05,
        "meta_mean_motion_ddot": 0,
        "tle_line1": "1 36834U 10038A   25352.31370477  .00002111  00000+0  25612-3 0  9998",
        "tle_line2": "2 36834  97.9138  12.0932 0001420  81.4672  48.3051 14.84629859830362"
      },
      "geometry": {
        "type": "Point",
        "coordinates": [
          139.74497388547056,
          -80.09084307694107
        ]
      }
    },
    {
      "type": "Feature",
      "properties": {
        "norad_id": 37216,
        "name": "COSMO-SKYMED 4",
        "group": "resource",
        "lat": 45.45654251452737,
        "lon": 2.065105100912746,
        "alt_km": 618.0833612707675,
        "timestamp": "2025-12-18T17:50:14.613187+00:00",
        "meta_object_name": "COSMO-SKYMED 4",
        "meta_object_id": "2010-060A",
        "meta_epoch": "2025-12-18T07:30:49.808736",
        "meta_mean_motion": 14.82149571,
        "meta_eccentricity": 0.00013817,
        "meta_inclination": 97.88,
        "meta_ra_of_asc_node": 173.5519,
        "meta_arg_of_pericenter": 80.803,
        "meta_mean_anomaly": 279.334,
        "meta_ephemeris_type": 0,
        "meta_classification_type": "U",
        "meta_norad_cat_id": 37216,
        "meta_element_set_no": 999,
        "meta_rev_at_epoch": 81777,
        "meta_bstar": 5.188893e-06,
        "meta_mean_motion_dot": -1.1e-07,
        "meta_mean_motion_ddot": 0,
        "tle_line1": "1 37216U 10060A   25352.31307649 -.00000011  00000+0  51889-5 0  9994",
        "tle_line2": "2 37216  97.8800 173.5519 0001381  80.8030 279.3340 14.82149571817776"
      },
      "geometry": {
        "type": "Point",
        "coordinates": [
          2.065105100912746,
          45.45654251452737
        ]
      }
    },
    {
      "type": "Feature",
      "properties": {
        "norad_id": 37387,
        "name": "RESOURCESAT-2",
        "group": "resource",
        "lat": -51.575495063276605,
        "lon": -134.97572767209203,
        "alt_km": 830.851508210234,
        "timestamp": "2025-12-18T17:50:14.613198+00:00",
        "meta_object_name": "RESOURCESAT-2",
        "meta_object_id": "2011-015A",
        "meta_epoch": "2025-12-18T06:36:45.038592",
        "meta_mean_motion": 14.21599458,
        "meta_eccentricity": 0.00061775,
        "meta_inclination": 98.7871,
        "meta_ra_of_asc_node": 55.8024,
        "meta_arg_of_pericenter": 27.8312,
        "meta_mean_anomaly": 332.3195,
        "meta_ephemeris_type": 0,
        "meta_classification_type": "U",
        "meta_norad_cat_id": 37387,
        "meta_element_set_no": 999,
        "meta_rev_at_epoch": 76047,
        "meta_bstar": 7.4221033e-05,
        "meta_mean_motion_dot": 1.18e-06,
        "meta_mean_motion_ddot": 0,
        "tle_line1": "1 37387U 11015A   25352.27552128  .00000118  00000+0  74221-4 0  9994",
        "tle_line2": "2 37387  98.7871  55.8024 0006177  27.8312 332.3195 14.21599458760476"
      },
      "geometry": {
        "type": "Point",
        "coordinates": [
          -134.97572767209203,
          -51.575495063276605
        ]
      }
    }
  ]
}